JILIN-1 GAOFEN 3A       
1 44312U 19032C   26068.74542089  .00016264  00000+0  55381-3 0  9993
2 44312  44.9746 183.2861 0002618 111.2900 248.8263 15.30271310372592
STARLINK-35559          
1 66095U 25236K   26068.53649726  .00026119  00000+0  89098-3 0  9993
2 66095  53.1589 104.4063 0001348  88.8812 271.2343 15.30196044 22928
