[{"OBJECT_NAME":"JILIN-1 GAOFEN 3A","OBJECT_ID":"2019-032C","EPOCH":"2026-03-09T17:53:24.364896","MEAN_MOTION":15.3027131,"ECCENTRICITY":0.00026181,"INCLINATION":44.9746,"RA_OF_ASC_NODE":183.2861,"ARG_OF_PERICENTER":111.29,"MEAN_ANOMALY":248.8263,"EPHEMERIS_TYPE":0,"CLASSIFICATION_TYPE":"U","NORAD_CAT_ID":44312,"ELEMENT_SET_NO":999,"REV_AT_EPOCH":37259,"BSTAR":0.00055381133,"MEAN_MOTION_DOT":0.00016264,"MEAN_MOTION_DDOT":0},{"OBJECT_NAME":"STARLINK-35559","OBJECT_ID":"2025-236K","EPOCH":"2026-03-09T12:52:33.363264","MEAN_MOTION":15.30196044,"ECCENTRICITY":0.00013487,"INCLINATION":53.1589,"RA_OF_ASC_NODE":104.4063,"ARG_OF_PERICENTER":88.8812,"MEAN_ANOMALY":271.2343,"EPHEMERIS_TYPE":0,"CLASSIFICATION_TYPE":"U","NORAD_CAT_ID":66095,"ELEMENT_SET_NO":999,"REV_AT_EPOCH":2292,"BSTAR":0.00089097535,"MEAN_MOTION_DOT":0.00026119,"MEAN_MOTION_DDOT":0}]
